CCSDS_OMM_VERS = 2.0
CREATION_DATE  = 
ORIGINATOR     = 

OBJECT_NAME    = ISS OBJECT XK
OBJECT_ID      = 1998-067XK
CENTER_NAME    = EARTH
REF_FRAME      = TEME
TIME_SYSTEM    = UTC
MEAN_ELEMENT_THEORY = SGP/SGP4

EPOCH          = 2026-02-26T12:04:54.675840
MEAN_MOTION    = 15.97908056
ECCENTRICITY   = .000739
INCLINATION    = 51.6191
RA_OF_ASC_NODE = 106.0856
ARG_OF_PERICENTER = 23.7474
MEAN_ANOMALY   = 336.3875

EPHEMERIS_TYPE = 0
CLASSIFICATION_TYPE = U
NORAD_CAT_ID   = 65731
ELEMENT_SET_NO = 999
REV_AT_EPOCH   = 2510
BSTAR          = .12568E-2
MEAN_MOTION_DOT = .58588E-2
MEAN_MOTION_DDOT = .15821E-3

CCSDS_OMM_VERS = 2.0
CREATION_DATE  = 
ORIGINATOR     = 

OBJECT_NAME    = YOTSUBA-KULOVER
OBJECT_ID      = 1998-067XN
CENTER_NAME    = EARTH
REF_FRAME      = TEME
TIME_SYSTEM    = UTC
MEAN_ELEMENT_THEORY = SGP/SGP4

EPOCH          = 2026-02-27T03:08:56.237280
MEAN_MOTION    = 15.76174813
ECCENTRICITY   = .00061055
INCLINATION    = 51.6225
RA_OF_ASC_NODE = 111.8727
ARG_OF_PERICENTER = 8.4969
MEAN_ANOMALY   = 351.6133

EPHEMERIS_TYPE = 0
CLASSIFICATION_TYPE = U
NORAD_CAT_ID   = 65941
ELEMENT_SET_NO = 999
REV_AT_EPOCH   = 2183
BSTAR          = .95645073E-3
MEAN_MOTION_DOT = .155334E-2
MEAN_MOTION_DDOT = 0

CCSDS_OMM_VERS = 2.0
CREATION_DATE  = 
ORIGINATOR     = 

OBJECT_NAME    = BOTAN
OBJECT_ID      = 1998-067XP
CENTER_NAME    = EARTH
REF_FRAME      = TEME
TIME_SYSTEM    = UTC
MEAN_ELEMENT_THEORY = SGP/SGP4

EPOCH          = 2026-02-27T03:44:37.239648
MEAN_MOTION    = 16.06354992
ECCENTRICITY   = .00090224
INCLINATION    = 51.6105
RA_OF_ASC_NODE = 105.1618
ARG_OF_PERICENTER = 24.9378
MEAN_ANOMALY   = 335.2069

EPHEMERIS_TYPE = 0
CLASSIFICATION_TYPE = U
NORAD_CAT_ID   = 65942
ELEMENT_SET_NO = 999
REV_AT_EPOCH   = 2192
BSTAR          = .16949167E-2
MEAN_MOTION_DOT = .1290162E-1
MEAN_MOTION_DDOT = .10016242E-2

CCSDS_OMM_VERS = 2.0
CREATION_DATE  = 
ORIGINATOR     = 

OBJECT_NAME    = E-KAGAKU-1
OBJECT_ID      = 1998-067XQ
CENTER_NAME    = EARTH
REF_FRAME      = TEME
TIME_SYSTEM    = UTC
MEAN_ELEMENT_THEORY = SGP/SGP4

EPOCH          = 2026-02-26T08:56:52.794528
MEAN_MOTION    = 15.75710786
ECCENTRICITY   = .00061785
INCLINATION    = 51.6251
RA_OF_ASC_NODE = 115.8237
ARG_OF_PERICENTER = 13.9440
MEAN_ANOMALY   = 346.1729

EPHEMERIS_TYPE = 0
CLASSIFICATION_TYPE = U
NORAD_CAT_ID   = 65943
ELEMENT_SET_NO = 999
REV_AT_EPOCH   = 2171
BSTAR          = .98364698E-3
MEAN_MOTION_DOT = .156564E-2
MEAN_MOTION_DDOT = 0

CCSDS_OMM_VERS = 2.0
CREATION_DATE  = 
ORIGINATOR     = 

OBJECT_NAME    = HRC MONOBLOCK CAMERA
OBJECT_ID      = 1998-067XR
CENTER_NAME    = EARTH
REF_FRAME      = TEME
TIME_SYSTEM    = UTC
MEAN_ELEMENT_THEORY = SGP/SGP4

EPOCH          = 2026-02-27T04:55:16.386528
MEAN_MOTION    = 15.60970650
ECCENTRICITY   = .00031618
INCLINATION    = 51.6282
RA_OF_ASC_NODE = 118.3987
ARG_OF_PERICENTER = 48.3883
MEAN_ANOMALY   = 311.7381

EPHEMERIS_TYPE = 0
CLASSIFICATION_TYPE = U
NORAD_CAT_ID   = 66052
ELEMENT_SET_NO = 999
REV_AT_EPOCH   = 2075
BSTAR          = .53931492E-3
MEAN_MOTION_DOT = .45888E-3
MEAN_MOTION_DDOT = 0

CCSDS_OMM_VERS = 2.0
CREATION_DATE  = 
ORIGINATOR     = 

OBJECT_NAME    = HTV-X1
OBJECT_ID      = 2025-241A
CENTER_NAME    = EARTH
REF_FRAME      = TEME
TIME_SYSTEM    = UTC
MEAN_ELEMENT_THEORY = SGP/SGP4

EPOCH          = 2026-02-27T06:02:26.632896
MEAN_MOTION    = 15.48333785
ECCENTRICITY   = .00083426
INCLINATION    = 51.6322
RA_OF_ASC_NODE = 123.9568
ARG_OF_PERICENTER = 138.2013
MEAN_ANOMALY   = 221.9613

EPHEMERIS_TYPE = 0
CLASSIFICATION_TYPE = U
NORAD_CAT_ID   = 66174
ELEMENT_SET_NO = 999
REV_AT_EPOCH   = 51
BSTAR          = .26392566E-3
MEAN_MOTION_DOT = .13796E-3
MEAN_MOTION_DDOT = 0

CCSDS_OMM_VERS = 2.0
CREATION_DATE  = 
ORIGINATOR     = 

OBJECT_NAME    = SZ-21 MODULE
OBJECT_ID      = 2025-246C
CENTER_NAME    = EARTH
REF_FRAME      = TEME
TIME_SYSTEM    = UTC
MEAN_ELEMENT_THEORY = SGP/SGP4

EPOCH          = 2026-02-26T16:09:22.254336
MEAN_MOTION    = 15.67604463
ECCENTRICITY   = .00014338
INCLINATION    = 41.4744
RA_OF_ASC_NODE = 271.1302
ARG_OF_PERICENTER = 288.0377
MEAN_ANOMALY   = 72.0308

EPHEMERIS_TYPE = 0
CLASSIFICATION_TYPE = U
NORAD_CAT_ID   = 66515
ELEMENT_SET_NO = 999
REV_AT_EPOCH   = 1634
BSTAR          = .3336204E-3
MEAN_MOTION_DOT = .37285E-3
MEAN_MOTION_DDOT = 0

CCSDS_OMM_VERS = 2.0
CREATION_DATE  = 
ORIGINATOR     = 

OBJECT_NAME    = SHENZHOU-22
OBJECT_ID      = 2025-272A
CENTER_NAME    = EARTH
REF_FRAME      = TEME
TIME_SYSTEM    = UTC
MEAN_ELEMENT_THEORY = SGP/SGP4

EPOCH          = 2026-02-27T00:39:02.297952
MEAN_MOTION    = 15.60161945
ECCENTRICITY   = .00060258
INCLINATION    = 41.4660
RA_OF_ASC_NODE = 273.0164
ARG_OF_PERICENTER = 205.1472
MEAN_ANOMALY   = 154.9074

EPHEMERIS_TYPE = 0
CLASSIFICATION_TYPE = U
NORAD_CAT_ID   = 66645
ELEMENT_SET_NO = 999
REV_AT_EPOCH   = 26764
BSTAR          = .3509601E-3
MEAN_MOTION_DOT = .29164E-3
MEAN_MOTION_DDOT = 0

CCSDS_OMM_VERS = 2.0
CREATION_DATE  = 
ORIGINATOR     = 

OBJECT_NAME    = SOYUZ-MS 28
OBJECT_ID      = 2025-275A
CENTER_NAME    = EARTH
REF_FRAME      = TEME
TIME_SYSTEM    = UTC
MEAN_ELEMENT_THEORY = SGP/SGP4

EPOCH          = 2026-02-27T06:02:26.632896
MEAN_MOTION    = 15.48333785
ECCENTRICITY   = .00083426
INCLINATION    = 51.6322
RA_OF_ASC_NODE = 123.9568
ARG_OF_PERICENTER = 138.2013
MEAN_ANOMALY   = 221.9613

EPHEMERIS_TYPE = 0
CLASSIFICATION_TYPE = U
NORAD_CAT_ID   = 66664
ELEMENT_SET_NO = 999
REV_AT_EPOCH   = 128
BSTAR          = .26392566E-3
MEAN_MOTION_DOT = .13796E-3
MEAN_MOTION_DDOT = 0

CCSDS_OMM_VERS = 2.0
CREATION_DATE  = 
ORIGINATOR     = 

OBJECT_NAME    = DUPLEX
OBJECT_ID      = 1998-067XS
CENTER_NAME    = EARTH
REF_FRAME      = TEME
TIME_SYSTEM    = UTC
MEAN_ELEMENT_THEORY = SGP/SGP4

EPOCH          = 2026-02-27T04:20:01.884768
MEAN_MOTION    = 15.55461576
ECCENTRICITY   = .00018253
INCLINATION    = 51.6292
RA_OF_ASC_NODE = 121.9855
ARG_OF_PERICENTER = 82.6224
MEAN_ANOMALY   = 277.4974

EPHEMERIS_TYPE = 0
CLASSIFICATION_TYPE = U
NORAD_CAT_ID   = 66906
ELEMENT_SET_NO = 999
REV_AT_EPOCH   = 1349
BSTAR          = .48825948E-3
MEAN_MOTION_DOT = .33598E-3
MEAN_MOTION_DDOT = 0

CCSDS_OMM_VERS = 2.0
CREATION_DATE  = 
ORIGINATOR     = 

OBJECT_NAME    = ISS OBJECT XT
OBJECT_ID      = 1998-067XT
CENTER_NAME    = EARTH
REF_FRAME      = TEME
TIME_SYSTEM    = UTC
MEAN_ELEMENT_THEORY = SGP/SGP4

EPOCH          = 2026-02-27T04:34:58.332288
MEAN_MOTION    = 15.65944652
ECCENTRICITY   = .00042172
INCLINATION    = 51.6257
RA_OF_ASC_NODE = 119.0475
ARG_OF_PERICENTER = 18.7212
MEAN_ANOMALY   = 341.3937

EPHEMERIS_TYPE = 0
CLASSIFICATION_TYPE = U
NORAD_CAT_ID   = 66907
ELEMENT_SET_NO = 999
REV_AT_EPOCH   = 1353
BSTAR          = .11501111E-2
MEAN_MOTION_DOT = .120924E-2
MEAN_MOTION_DDOT = 0

CCSDS_OMM_VERS = 2.0
CREATION_DATE  = 
ORIGINATOR     = 

OBJECT_NAME    = ISS OBJECT XU
OBJECT_ID      = 1998-067XU
CENTER_NAME    = EARTH
REF_FRAME      = TEME
TIME_SYSTEM    = UTC
MEAN_ELEMENT_THEORY = SGP/SGP4

EPOCH          = 2026-02-27T04:33:17.494848
MEAN_MOTION    = 15.66025339
ECCENTRICITY   = .00042994
INCLINATION    = 51.6252
RA_OF_ASC_NODE = 119.0365
ARG_OF_PERICENTER = 20.7709
MEAN_ANOMALY   = 339.3460

EPHEMERIS_TYPE = 0
CLASSIFICATION_TYPE = U
NORAD_CAT_ID   = 66908
ELEMENT_SET_NO = 999
REV_AT_EPOCH   = 1353
BSTAR          = .11540456E-2
MEAN_MOTION_DOT = .121749E-2
MEAN_MOTION_DDOT = 0

